{
    "links": {
        "self": "http://www.neowsapp.com/rest/v1/neo/3670632?api_key=iIulBulltgU6a56xZRHN4H3l9WmuAYTsLGpBGhQ2"
    },
    "id": "3670632",
    "neo_reference_id": "3670632",
    "name": "(2014 JQ24)",
    "designation": "2014 JQ24",
    "nasa_jpl_url": "http://ssd.jpl.nasa.gov/sbdb.cgi?sstr=3670632",
    "absolute_magnitude_h": 21.8,
    "estimated_diameter": {
        "kilometers": {
            "estimated_diameter_min": 0.1160259082,
            "estimated_diameter_max": 0.2594418179
        },
        "meters": {
            "estimated_diameter_min": 116.0259082094,
            "estimated_diameter_max": 259.4418179074
        },
        "miles": {
            "estimated_diameter_min": 0.0720951346,
            "estimated_diameter_max": 0.1612096218
        },
        "feet": {
            "estimated_diameter_min": 380.6624406898,
            "estimated_diameter_max": 851.1870938635
        }
    },
    "is_potentially_hazardous_asteroid": false,
    "close_approach_data": [
        {
            "close_approach_date": "2014-04-29",
            "close_approach_date_full": "2014-Apr-29 17:33",
            "epoch_date_close_approach": 1398792780000,
            "relative_velocity": {
                "kilometers_per_second": "17.7106641468",
                "kilometers_per_hour": "63758.3909284541",
                "miles_per_hour": "39616.9846299608"
            },
            "miss_distance": {
                "astronomical": "0.2399256766",
                "lunar": "93.3310881974",
                "kilometers": "35892370.177668842",
                "miles": "22302484.6484483396"
            },
            "orbiting_body": "Earth"
        }
    ],
    "orbital_data": {
        "orbit_id": "7",
        "orbit_determination_date": "2017-04-06 08:40:38",
        "first_observation_date": "2014-05-04",
        "last_observation_date": "2014-05-08",
        "data_arc_in_days": 4,
        "observations_used": 31,
        "orbit_uncertainty": "9",
        "minimum_orbit_intersection": ".23723",
        "jupiter_tisserand_invariant": "4.047",
        "epoch_osculation": "2456782.5",
        "eccentricity": ".2858624281541794",
        "semi_major_axis": "1.652919148778894",
        "inclination": "33.6995019667874",
        "ascending_node_longitude": "43.43639173937561",
        "orbital_period": "776.2039406652941",
        "perihelion_distance": "1.18041166736642",
        "perihelion_argument": "137.1443336049293",
        "aphelion_distance": "2.125426630191368",
        "perihelion_time": "2456735.161700716572",
        "mean_anomaly": "21.95529660339955",
        "mean_motion": ".4637956355792777",
        "equinox": "J2000",
        "orbit_class": {
            "orbit_class_type": "AMO",
            "orbit_class_description": "Near-Earth asteroid orbits similar to that of 1221 Amor",
            "orbit_class_range": "1.017 AU < q (perihelion) < 1.3 AU"
        }
    },
    "is_sentry_object": false
}